IRIDIUM 36 [-]          
1 24967U 97056C   23327.33395415  .00000658  00000+0  21758-3 0  9999
2 24967  86.3991  53.0893 0002281  92.5825 267.5633 14.36517101370098
IRIDIUM 39 [-]          
1 25042U 97069D   23326.86500815  .00001206  00000+0  32206-3 0  9997
2 25042  86.3900  96.2662 0020115  59.6005 300.7182 14.47510023366122
IRIDIUM 38 [-]          
1 25043U 97069E   23326.91956533  .00000834  00000+0  27520-3 0  9995
2 25043  86.3936 113.7560 0002597 141.3196 218.8188 14.36973042364000
IRIDIUM 42 [-]          
1 25077U 97077A   23327.49421763  .00000736  00000+0  25052-3 0  9996
2 25077  86.3940 118.9885 0002105 109.2683 250.8741 14.35281125359163
IRIDIUM 44 [-]          
1 25078U 97077B   23327.44690028  .00000854  00000+0  27000-3 0  9990
2 25078  86.3935 102.4639 0003921  99.5460 260.6181 14.39081617361476
IRIDIUM 45 [-]          
1 25104U 97082A   23327.46894310  .00017163  00000+0  10939-2 0  9991
2 25104  86.3734 318.8196 0173499 268.0065  90.1289 14.96933035366121
IRIDIUM 24 [-]          
1 25105U 97082B   23326.53906615  .00000835  00000+0  25442-3 0  9995
2 25105  86.3885 322.8023 0012195 158.0307 202.1418 14.40839216360729
IRIDIUM 51 [-]          
1 25262U 98018A   23327.45771566  .00016293  00000+0  88732-3 0  9992
2 25262  86.3907 329.2479 0160315 220.1800 138.7496 15.03852800360499
